{
    "links": {
        "self": "http://www.neowsapp.com/rest/v1/neo/3771012?api_key=iIulBulltgU6a56xZRHN4H3l9WmuAYTsLGpBGhQ2"
    },
    "id": "3771012",
    "neo_reference_id": "3771012",
    "name": "(2017 ER2)",
    "designation": "2017 ER2",
    "nasa_jpl_url": "http://ssd.jpl.nasa.gov/sbdb.cgi?sstr=3771012",
    "absolute_magnitude_h": 24.9,
    "estimated_diameter": {
        "kilometers": {
            "estimated_diameter_min": 0.0278326768,
            "estimated_diameter_max": 0.0622357573
        },
        "meters": {
            "estimated_diameter_min": 27.8326768072,
            "estimated_diameter_max": 62.2357573367
        },
        "miles": {
            "estimated_diameter_min": 0.0172944182,
            "estimated_diameter_max": 0.0386714948
        },
        "feet": {
            "estimated_diameter_min": 91.3145593761,
            "estimated_diameter_max": 204.1855621004
        }
    },
    "is_potentially_hazardous_asteroid": false,
    "close_approach_data": [
        {
            "close_approach_date": "2017-03-01",
            "close_approach_date_full": "2017-Mar-01 00:30",
            "epoch_date_close_approach": 1488328200000,
            "relative_velocity": {
                "kilometers_per_second": "7.1815047521",
                "kilometers_per_hour": "25853.4171074892",
                "miles_per_hour": "16064.3079799285"
            },
            "miss_distance": {
                "astronomical": "0.1372808577",
                "lunar": "53.4022536453",
                "kilometers": "20536923.903693099",
                "miles": "12761052.7758748062"
            },
            "orbiting_body": "Earth"
        }
    ],
    "orbital_data": {
        "orbit_id": "4",
        "orbit_determination_date": "2017-04-06 08:19:40",
        "first_observation_date": "2017-03-04",
        "last_observation_date": "2017-03-27",
        "data_arc_in_days": 23,
        "observations_used": 23,
        "orbit_uncertainty": "7",
        "minimum_orbit_intersection": ".129833",
        "jupiter_tisserand_invariant": "3.308",
        "epoch_osculation": "2459000.5",
        "eccentricity": ".5330601229611035",
        "semi_major_axis": "2.389881678989911",
        "inclination": "9.595856789721424",
        "ascending_node_longitude": "351.7128557005166",
        "orbital_period": "1349.469355377366",
        "perihelion_distance": "1.115931057325061",
        "perihelion_argument": "164.3682628305882",
        "aphelion_distance": "3.663832300654762",
        "perihelion_time": "2459155.809888077101",
        "mean_anomaly": "318.5677440655027",
        "mean_motion": ".266771526574851",
        "equinox": "J2000",
        "orbit_class": {
            "orbit_class_type": "AMO",
            "orbit_class_description": "Near-Earth asteroid orbits similar to that of 1221 Amor",
            "orbit_class_range": "1.017 AU < q (perihelion) < 1.3 AU"
        }
    },
    "is_sentry_object": false
}